NORAD_CAT_ID,OBJECT_NAME,OBJECT_TYPE,EPOCH,MEAN_MOTION,ECCENTRICITY,INCLINATION,RA_OF_ASC_NODE,ARG_OF_PERICENTER,MEAN_ANOMALY,BSTAR,MEAN_MOTION_DOT,MEAN_MOTION_DDOT,TLE_LINE0,TLE_LINE1,TLE_LINE2,SEMIMAJOR_AXIS,PERIOD,APOGEE,PERIGEE,DECAYED
49729.0,STARLINK-3251,PAYLOAD,2022-12-12 12:33:47,15.08849636,0.0002129,53.2161,70.5701,36.2922,323.8214,0.00043213,6.598e-05,0.0,0 STARLINK-3251,1 49729U 21115F   22346.52347215  .00006598  00000-0  43213-3 0  9991,2 49729  53.2161  70.5701 0002129  36.2922 323.8214 15.08849636 56777,6917.851,95.437,541.189,538.243,0.0
49729.0,STARLINK-3251,PAYLOAD,2022-12-12 17:19:57,15.08841276,0.0002102,53.2159,69.6782,37.31800000000001,322.7958,0.00016241,2.298e-05,0.0,0 STARLINK-3251,1 49729U 21115F   22346.72219395  .00002298  00000-0  16241-3 0  9994,2 49729  53.2159  69.6782 0002102  37.3180 322.7958 15.08841276 57913,6917.876,95.437,541.196,538.2869999999998,0.0
49729.0,STARLINK-3251,PAYLOAD,2022-12-12 20:30:43,15.08839115,0.0002119,53.216,69.0834,37.0477,323.0661,6.5622e-05,7.56e-06,0.0,0 STARLINK-3251,1 49729U 21115F   22346.85467440  .00000756  00000-0  65622-4 0  9999,2 49729  53.2160  69.0834 0002119  37.0477 323.0661 15.08839115 56824,6917.8830000000025,95.438,541.214,538.2819999999998,0.0
49729.0,STARLINK-3251,PAYLOAD,2022-12-13 09:13:49,15.08836359,0.0002149,53.2161,66.7045,34.4137,325.6994,0.00012633,1.723e-05,0.0,0 STARLINK-3251,1 49729U 21115F   22347.38459708  .00001723  00000-0  12633-3 0  9994,2 49729  53.2161  66.7045 0002149  34.4137 325.6994 15.08836359 58017,6917.892,95.438,541.243,538.27,0.0
49729.0,STARLINK-3251,PAYLOAD,2022-12-13 13:59:58,15.08842085,0.0002177,53.216,65.8124,35.1727,324.9409,0.00015056,2.109e-05,0.0,0 STARLINK-3251,1 49729U 21115F   22347.58331420  .00002109  00000-0  15056-3 0  9997,2 49729  53.2160  65.8124 0002177  35.1727 324.9409 15.08842085 56933,6917.874,95.437,541.245,538.2330000000002,0.0
49729.0,STARLINK-3251,PAYLOAD,2022-12-13 17:10:44,15.08838388,0.0002187,53.2159,65.2177,34.1169,325.9963,2.4536e-05,1.02e-06,0.0,0 STARLINK-3251,1 49729U 21115F   22347.71579513  .00000102  00000-0  24536-4 0  9994,2 49729  53.2159  65.2177 0002187  34.1169 325.9963 15.08838388 56952,6917.885,95.438,541.263,538.237,0.0
49729.0,STARLINK-3251,PAYLOAD,2022-12-14 12:15:22,15.08838928,0.0002172,53.216,61.6491,34.8839,325.2295,9.0204e-05,1.148e-05,0.0,0 STARLINK-3251,1 49729U 21115F   22348.51067683  .00001148  00000-0  90204-4 0  9999,2 49729  53.2160  61.6491 0002172  34.8839 325.2295 15.08838928 58186,6917.884,95.438,541.251,538.246,0.0
49729.0,STARLINK-3251,PAYLOAD,2022-12-14 18:36:55,15.08841342,0.000218,53.2159,60.4595,35.7948,324.319,0.00017775,2.542e-05,0.0,0 STARLINK-3251,1 49729U 21115F   22348.77563661  .00002542  00000-0  17775-3 0  9994,2 49729  53.2159  60.4595 0002180  35.7948 324.3190 15.08841342 57116,6917.876,95.437,541.249,538.2330000000002,0.0
49729.0,STARLINK-3251,PAYLOAD,2022-12-15 13:41:32,15.08850245,0.0002214,53.2157,56.8911,34.9969,325.1168,0.00045118,6.902e-05,0.0,0 STARLINK-3251,1 49729U 21115F   22349.57051538  .00006902  00000-0  45118-3 0  9994,2 49729  53.2157  56.8911 0002214  34.9969 325.1168 15.08850245 58349,6917.849,95.437,541.246,538.182,0.0
49729.0,STARLINK-3251,PAYLOAD,2022-12-15 21:38:27,15.0885712,0.0002247,53.2155,55.4042,35.8302,324.284,0.00065129,0.00010097,0.0,0 STARLINK-3251,1 49729U 21115F   22349.90171207  .00010097  00000-0  65129-3 0  9991,2 49729  53.2155  55.4042 0002247  35.8302 324.2840 15.08857120 57282,6917.828,95.436,541.247,538.139,0.0
49729.0,STARLINK-3251,PAYLOAD,2022-12-16 13:32:18,15.08854221,0.0002305,53.2156,52.4306,35.7037,324.4109,0.00025136,3.716e-05,0.0,0 STARLINK-3251,1 49729U 21115F   22350.56410729  .00003716  00000-0  25136-3 0  9994,2 49729  53.2156  52.4306 0002305  35.7037 324.4109 15.08854221 57382,6917.837,95.437,541.2959999999998,538.107,0.0
49729.0,STARLINK-3251,PAYLOAD,2022-12-17 03:50:47,15.08835908,0.0002429,53.2157,49.7544,39.8141,320.3029,-0.00011456,-2.111e-05,0.0,0 STARLINK-3251,1 49729U 21115F   22351.16027408 -.00002111  00000-0 -11456-3 0  9999,2 49729  53.2157  49.7544 0002429  39.8141 320.3029 15.08835908 58584,6917.893,95.438,541.438,538.078,0.0
49729.0,STARLINK-3251,PAYLOAD,2022-12-17 10:12:20,15.08832625,0.0002314,53.2158,48.5649,38.0006,322.1149,-0.00014104,-2.532e-05,0.0,0 STARLINK-3251,1 49729U 21115F   22351.42523569 -.00002532  00000-0 -14104-3 0  9997,2 49729  53.2158  48.5649 0002314  38.0006 322.1149 15.08832625 57510,6917.903,95.438,541.369,538.1669999999998,0.0
49729.0,STARLINK-3251,PAYLOAD,2022-12-17 16:33:52,15.08838411,0.0002301,53.2163,47.3752,37.249,322.8662,6.1376e-06,-1.91e-06,0.0,0 STARLINK-3251,1 49729U 21115F   22351.69019654 -.00000191  00000-0  61376-5 0  9994,2 49729  53.2163  47.3752 0002301  37.2490 322.8662 15.08838411 57552,6917.885,95.438,541.342,538.158,0.0
49729.0,STARLINK-3251,PAYLOAD,2022-12-18 11:38:30,15.08843379,0.0002239,53.2169,43.8063,39.2007,320.9147,-2.1037e-05,-6.23e-06,0.0,0 STARLINK-3251,1 49729U 21115F   22352.48507691 -.00000623  00000-0 -21037-4 0  9995,2 49729  53.2169  43.8063 0002239  39.2007 320.9147 15.08843379 58782,6917.87,95.437,541.284,538.186,0.0
49729.0,STARLINK-3251,PAYLOAD,2022-12-18 21:10:50,15.08829964,0.0002349,53.2172,42.0231,37.3899,322.7256,2.4648e-05,1.04e-06,0.0,0 STARLINK-3251,1 49729U 21115F   22352.88252680  .00000104  00000-0  24648-4 0  9997,2 49729  53.2172  42.0231 0002349  37.3899 322.7256 15.08829964 57733,6917.911,95.438,541.401,538.151,0.0
49729.0,STARLINK-3251,PAYLOAD,2022-12-19 06:43:08,15.08838604,0.0002272,53.2171,40.238,35.8585,324.256,0.00022256,3.255e-05,0.0,0 STARLINK-3251,1 49729U 21115F   22353.27995903  .00003255  00000-0  22256-3 0  9995,2 49729  53.2171  40.2380 0002272  35.8585 324.2560 15.08838604 58903,6917.885,95.438,541.321,538.178,0.0
49729.0,STARLINK-3251,PAYLOAD,2022-12-20 12:55:27,15.08852317,0.0002459,53.2176,34.5903,34.3815,325.7336,0.00025932,3.843e-05,0.0,0 STARLINK-3251,1 49729U 21115F   22354.53851467  .00003843  00000-0  25932-3 0  9998,2 49729  53.2176  34.5903 0002459  34.3815 325.7336 15.08852317 59097,6917.843000000003,95.437,541.409,538.007,0.0
49729.0,STARLINK-3251,PAYLOAD,2022-12-21 04:49:19,15.08825045,0.0002223,53.2173,31.6142,15.7252,344.3809,-0.00031754,-5.336e-05,0.0,0 STARLINK-3251,1 49729U 21115F   22355.20092176 -.00005336  00000-0 -31754-3 0  9997,2 49729  53.2173  31.6142 0002223  15.7252 344.3809 15.08825045 59195,6917.926,95.439,541.3290000000002,538.253,0.0
49729.0,STARLINK-3251,PAYLOAD,2022-12-21 11:10:53,15.08825737,0.0002328,53.2178,30.4264,34.772,325.3424,-9.9111e-05,-1.865e-05,0.0,0 STARLINK-3251,1 49729U 21115F   22355.46589398 -.00001865  00000-0 -99111-4 0  9997,2 49729  53.2178  30.4264 0002328  34.7720 325.3424 15.08825737 58121,6917.924,95.438,541.399,538.178,0.0
49729.0,STARLINK-3251,PAYLOAD,2022-12-22 03:04:43,15.08839914,0.0002378,53.2174,27.4522,30.7071,329.406,-1.7604e-05,-5.69e-06,0.0,0 STARLINK-3251,1 49729U 21115F   22356.12828461 -.00000569  00000-0 -17604-4 0  9995,2 49729  53.2174  27.4522 0002378  30.7071 329.4060 15.08839914 59337,6917.880999999999,95.438,541.391,538.101,0.0
49729.0,STARLINK-3251,PAYLOAD,2022-12-22 12:37:02,15.08841582,0.0002407,53.2171,25.6679,29.7858,330.3271,-7.728e-07,-3.01e-06,0.0,0 STARLINK-3251,1 49729U 21115F   22356.52572281 -.00000301  00000-0 -77280-6 0  9997,2 49729  53.2171  25.6679 0002407  29.7858 330.3271 15.08841582 58283,6917.876,95.437,541.406,538.075,0.0
49729.0,STARLINK-3251,PAYLOAD,2022-12-23 10:52:27,15.08824541,0.0002402,53.2171,21.5046,27.7921,332.3199,0.00016267,2.301e-05,0.0,0 STARLINK-3251,1 49729U 21115F   22357.45309575  .00002301  00000-0  16267-3 0  9999,2 49729  53.2171  21.5046 0002402  27.7921 332.3199 15.08824541 59536,6917.928000000001,95.439,541.4540000000002,538.131,0.0
49729.0,STARLINK-3251,PAYLOAD,2022-12-23 18:49:22,15.08834235,0.0002398,53.2171,20.0178,28.2547,331.8575,0.00018637,2.679e-05,0.0,0 STARLINK-3251,1 49729U 21115F   22357.78429225  .00002679  00000-0  18637-3 0  9991,2 49729  53.2171  20.0178 0002398  28.2547 331.8575 15.08834235 58475,6917.898,95.438,541.422,538.104,0.0
49729.0,STARLINK-3251,PAYLOAD,2022-12-24 02:46:18,15.0884497,0.0002419,53.2172,18.53,29.6816,330.4313,0.00019255,2.778e-05,0.0,0 STARLINK-3251,1 49729U 21115F   22358.11548614  .00002778  00000-0  19255-3 0  9990,2 49729  53.2172  18.5300 0002419  29.6816 330.4313 15.08844970 59634,6917.865,95.437,541.404,538.057,0.0
49729.0,STARLINK-3251,PAYLOAD,2022-12-24 13:53:59,15.08853298,0.0002452,53.2178,16.4488,32.7118,327.4025,0.00017341,2.474e-05,0.0,0 STARLINK-3251,1 49729U 21115F   22358.57916013  .00002474  00000-0  17341-3 0  9999,2 49729  53.2178  16.4488 0002452  32.7118 327.4025 15.08853298 58594,6917.84,95.437,541.401,538.008,0.0
49729.0,STARLINK-3251,PAYLOAD,2022-12-25 07:23:14,15.088397400000002,0.0002475,53.2172,13.1776,34.9346,325.1808,0.00014343,1.995e-05,0.0,0 STARLINK-3251,1 49729U 21115F   22359.30780890  .00001995  00000-0  14343-3 0  9999,2 49729  53.2172  13.1776 0002475  34.9346 325.1808 15.08839740 59810,6917.880999999999,95.438,541.4580000000002,538.034,0.0
49729.0,STARLINK-3251,PAYLOAD,2022-12-25 10:34:01,15.08833546,0.0002413,53.2171,12.5824,33.9931,326.1216,7.8589e-05,9.62e-06,0.0,0 STARLINK-3251,1 49729U 21115F   22359.44029459  .00000962  00000-0  78589-4 0  9997,2 49729  53.2171  12.5824 0002413  33.9931 326.1216 15.08833546 59831,6917.9,95.438,541.434,538.096,0.0
49729.0,STARLINK-3251,PAYLOAD,2022-12-25 18:30:57,15.08834938,0.0002499,53.2178,11.095999999999998,33.0692,327.0456,3.7314e-05,3.05e-06,0.0,0 STARLINK-3251,1 49729U 21115F   22359.77149580  .00000305  00000-0  37314-4 0  9993,2 49729  53.2178  11.0960 0002499  33.0692 327.0456 15.08834938 58776,6917.896,95.438,541.49,538.0319999999998,0.0
